COSMOS 2251 DEB         
1 38215U 93036BTF 17345.50601053  .00002768  00000-0  57108-3 0  9997
2 38215  74.0274 149.9859 0012492 197.7581 217.3657 14.60878970319088
